[
    {
        "Altitude(m)": 717079.4671454914,
        "Argument of Periapsis(deg)": 0.006834072711976239,
        "Eccentricity": 0.0,
        "Inclination(deg)": 45.0,
        "Latitude(deg)": -43.213141003015224,
        "Longitude(deg)": 140.4072799156317,
        "Mean Anomaly(deg)": -74.89827001151153,
        "RAAN(deg)": 309.9935488351251,
        "Satellite Name": "Constellation 1 1381",
        "Satellite Number": 1381,
        "Semi-Major Axis(m)": 7083131.272910544,
        "Time(s)": 114
    },
    {
        "Altitude(m)": 717073.1288513815,
        "Argument of Periapsis(deg)": 0.006894020718221645,
        "Eccentricity": 0.0,
        "Inclination(deg)": 45.0,
        "Latitude(deg)": -43.19783696358265,
        "Longitude(deg)": 140.4833605357402,
        "Mean Anomaly(deg)": -74.83756887126164,
        "RAAN(deg)": 309.9934922459595,
        "Satellite Name": "Constellation 1 1381",
        "Satellite Number": 1381,
        "Semi-Major Axis(m)": 7083131.272910544,
        "Time(s)": 115
    },
    {
        "Altitude(m)": 717066.7671283487,
        "Argument of Periapsis(deg)": 0.006953968724467052,
        "Eccentricity": 0.0,
        "Inclination(deg)": 45.0,
        "Latitude(deg)": -43.18247671480096,
        "Longitude(deg)": 140.55940110543793,
        "Mean Anomaly(deg)": -74.7768677310117,
        "RAAN(deg)": 309.9934356567939,
        "Satellite Name": "Constellation 1 1381",
        "Satellite Number": 1381,
        "Semi-Major Axis(m)": 7083131.272910544,
        "Time(s)": 116
    },
    {
        "Altitude(m)": 717060.3819997798,
        "Argument of Periapsis(deg)": 0.007013916730712457,
        "Eccentricity": 0.0,
        "Inclination(deg)": 45.0,
        "Latitude(deg)": -43.16706031422538,
        "Longitude(deg)": 140.63540151978626,
        "Mean Anomaly(deg)": -74.71616659076177,
        "RAAN(deg)": 309.9933790676284,
        "Satellite Name": "Constellation 1 1381",
        "Satellite Number": 1381,
        "Semi-Major Axis(m)": 7083131.272910544,
        "Time(s)": 117
    },
    {
        "Altitude(m)": 717053.9734891437,
        "Argument of Periapsis(deg)": 0.007073864736957864,
        "Eccentricity": 0.0,
        "Inclination(deg)": 45.0,
        "Latitude(deg)": -43.15158781954764,
        "Longitude(deg)": 140.7113616744012,
        "Mean Anomaly(deg)": -74.65546545051197,
        "RAAN(deg)": 309.9933224784628,
        "Satellite Name": "Constellation 1 1381",
        "Satellite Number": 1381,
        "Semi-Major Axis(m)": 7083131.272910544,
        "Time(s)": 118
    },
    {
        "Altitude(m)": 717047.5416199927,
        "Argument of Periapsis(deg)": 0.0071338127432032696,
        "Eccentricity": 0.0,
        "Inclination(deg)": 45.0,
        "Latitude(deg)": -43.136059288594694,
        "Longitude(deg)": 140.78728129735782,
        "Mean Anomaly(deg)": -74.59476431026204,
        "RAAN(deg)": 309.9932658892973,
        "Satellite Name": "Constellation 1 1381",
        "Satellite Number": 1381,
        "Semi-Major Axis(m)": 7083131.272910544,
        "Time(s)": 119
    },
    {
        "Altitude(m)": 717041.0864159621,
        "Argument of Periapsis(deg)": 0.007193760749448674,
        "Eccentricity": 0.0,
        "Inclination(deg)": 45.0,
        "Latitude(deg)": -43.120474779328894,
        "Longitude(deg)": 140.8631606215767,
        "Mean Anomaly(deg)": -74.53406317001205,
        "RAAN(deg)": 309.99320930013164,
        "Satellite Name": "Constellation 1 1381",
        "Satellite Number": 1381,
        "Semi-Major Axis(m)": 7083131.272910544,
        "Time(s)": 120
    },
    {
        "Altitude(m)": 717034.6079007819,
        "Argument of Periapsis(deg)": 0.007253708755694079,
        "Eccentricity": 0.0,
        "Inclination(deg)": 45.0,
        "Latitude(deg)": -43.10483434984579,
        "Longitude(deg)": 140.93899937624317,
        "Mean Anomaly(deg)": -74.47336202976227,
        "RAAN(deg)": 309.99315271096606,
        "Satellite Name": "Constellation 1 1381",
        "Satellite Number": 1381,
        "Semi-Major Axis(m)": 7083131.272910544,
        "Time(s)": 121
    },
    {
        "Altitude(m)": 717028.1060982483,
        "Argument of Periapsis(deg)": 0.0073136567619394854,
        "Eccentricity": 0.0,
        "Inclination(deg)": 45.0,
        "Latitude(deg)": -43.0891380583738,
        "Longitude(deg)": 141.0147974591966,
        "Mean Anomaly(deg)": -74.41266088951234,
        "RAAN(deg)": 309.99309612180053,
        "Satellite Name": "Constellation 1 1381",
        "Satellite Number": 1381,
        "Semi-Major Axis(m)": 7083131.272910544,
        "Time(s)": 122
    },
    {
        "Altitude(m)": 717021.5810322564,
        "Argument of Periapsis(deg)": 0.0073736047681848904,
        "Eccentricity": 0.0,
        "Inclination(deg)": 45.0,
        "Latitude(deg)": -43.07338596327347,
        "Longitude(deg)": 141.09055476883168,
        "Mean Anomaly(deg)": -74.35195974926239,
        "RAAN(deg)": 309.99303953263495,
        "Satellite Name": "Constellation 1 1381",
        "Satellite Number": 1381,
        "Semi-Major Axis(m)": 7083131.272910544,
        "Time(s)": 123
    },
    {
        "Altitude(m)": 717015.0327267898,
        "Argument of Periapsis(deg)": 0.007433552774430298,
        "Eccentricity": 0.0,
        "Inclination(deg)": 45.0,
        "Latitude(deg)": -43.05757812303636,
        "Longitude(deg)": 141.1662712040998,
        "Mean Anomaly(deg)": -74.29125860901246,
        "RAAN(deg)": 309.99298294346937,
        "Satellite Name": "Constellation 1 1381",
        "Satellite Number": 1381,
        "Semi-Major Axis(m)": 7083131.272910544,
        "Time(s)": 124
    },
    {
        "Altitude(m)": 717008.4612059026,
        "Argument of Periapsis(deg)": 0.007493500780675703,
        "Eccentricity": 0.0,
        "Inclination(deg)": 45.0,
        "Latitude(deg)": -43.04171459628425,
        "Longitude(deg)": 141.24194666450876,
        "Mean Anomaly(deg)": -74.23055746876267,
        "RAAN(deg)": 309.99292635430385,
        "Satellite Name": "Constellation 1 1381",
        "Satellite Number": 1381,
        "Semi-Major Axis(m)": 7083131.272910544,
        "Time(s)": 125
    },
    {
        "Altitude(m)": 717001.8664937452,
        "Argument of Periapsis(deg)": 0.007553448786921108,
        "Eccentricity": 0.0,
        "Inclination(deg)": 45.0,
        "Latitude(deg)": -43.025795441767805,
        "Longitude(deg)": 141.3175808820273,
        "Mean Anomaly(deg)": -74.16985632851268,
        "RAAN(deg)": 309.9928697651382,
        "Satellite Name": "Constellation 1 1381",
        "Satellite Number": 1381,
        "Semi-Major Axis(m)": 7083131.272910544,
        "Time(s)": 126
    },
    {
        "Altitude(m)": 716995.2486145463,
        "Argument of Periapsis(deg)": 0.007613396793166514,
        "Eccentricity": 0.0,
        "Inclination(deg)": 45.0,
        "Latitude(deg)": -43.009820718366896,
        "Longitude(deg)": 141.3931740934707,
        "Mean Anomaly(deg)": -74.10915518826285,
        "RAAN(deg)": 309.9928131759727,
        "Satellite Name": "Constellation 1 1381",
        "Satellite Number": 1381,
        "Semi-Major Axis(m)": 7083131.272910544,
        "Time(s)": 127
    },
    {
        "Altitude(m)": 716988.6075926187,
        "Argument of Periapsis(deg)": 0.007673344799411918,
        "Eccentricity": 0.0,
        "Inclination(deg)": 45.0,
        "Latitude(deg)": -42.99379048508812,
        "Longitude(deg)": 141.46872603192148,
        "Mean Anomaly(deg)": -74.04845404801296,
        "RAAN(deg)": 309.9927565868071,
        "Satellite Name": "Constellation 1 1381",
        "Satellite Number": 1381,
        "Semi-Major Axis(m)": 7083131.272910544,
        "Time(s)": 128
    },
    {
        "Altitude(m)": 716981.9434523641,
        "Argument of Periapsis(deg)": 0.007733292805657325,
        "Eccentricity": 0.0,
        "Inclination(deg)": 45.0,
        "Latitude(deg)": -42.977704801064775,
        "Longitude(deg)": 141.54423659911657,
        "Mean Anomaly(deg)": -73.98775290776302,
        "RAAN(deg)": 309.9926999976415,
        "Satellite Name": "Constellation 1 1381",
        "Satellite Number": 1381,
        "Semi-Major Axis(m)": 7083131.272910544,
        "Time(s)": 129
    },
    {
        "Altitude(m)": 716975.2562182657,
        "Argument of Periapsis(deg)": 0.00779324081190273,
        "Eccentricity": 0.0,
        "Inclination(deg)": 45.0,
        "Latitude(deg)": -42.961563725555955,
        "Longitude(deg)": 141.61970569734993,
        "Mean Anomaly(deg)": -73.92705176751308,
        "RAAN(deg)": 309.992643408476,
        "Satellite Name": "Constellation 1 1381",
        "Satellite Number": 1381,
        "Semi-Major Axis(m)": 7083131.272910544,
        "Time(s)": 130
    },
    {
        "Altitude(m)": 716968.54591489,
        "Argument of Periapsis(deg)": 0.007853188818148135,
        "Eccentricity": 0.0,
        "Inclination(deg)": 45.0,
        "Latitude(deg)": -42.94536731794556,
        "Longitude(deg)": 141.69513322947313,
        "Mean Anomaly(deg)": -73.8663506272633,
        "RAAN(deg)": 309.9925868193104,
        "Satellite Name": "Constellation 1 1381",
        "Satellite Number": 1381,
        "Semi-Major Axis(m)": 7083131.272910544,
        "Time(s)": 131
    },
    {
        "Altitude(m)": 716961.8125668855,
        "Argument of Periapsis(deg)": 0.007913136824393542,
        "Eccentricity": 0.0,
        "Inclination(deg)": 45.0,
        "Latitude(deg)": -42.92911563774111,
        "Longitude(deg)": 141.7705190988963,
        "Mean Anomaly(deg)": -73.80564948701331,
        "RAAN(deg)": 309.99253023014484,
        "Satellite Name": "Constellation 1 1381",
        "Satellite Number": 1381,
        "Semi-Major Axis(m)": 7083131.272910544,
        "Time(s)": 132
    }
]